[Satellite]
VERSION=1.1
NAME=IRIDIUM 32 [+]
NICKNAME=IRIDIUM 32 [+]
TLE1=1 24945U 97051B   18020.89821466 -.00000079  00000-0 -35117-4 0  9990
TLE2=2 24945  86.3968 196.0918 0002062  87.6368 272.5064 14.34213481 65624
